{
    "links": {
        "self": "http://www.neowsapp.com/rest/v1/neo/3368735?api_key=iIulBulltgU6a56xZRHN4H3l9WmuAYTsLGpBGhQ2"
    },
    "id": "3368735",
    "neo_reference_id": "3368735",
    "name": "(2007 DJ8)",
    "designation": "2007 DJ8",
    "nasa_jpl_url": "http://ssd.jpl.nasa.gov/sbdb.cgi?sstr=3368735",
    "absolute_magnitude_h": 24.3,
    "estimated_diameter": {
        "kilometers": {
            "estimated_diameter_min": 0.0366906138,
            "estimated_diameter_max": 0.0820427065
        },
        "meters": {
            "estimated_diameter_min": 36.6906137531,
            "estimated_diameter_max": 82.0427064882
        },
        "miles": {
            "estimated_diameter_min": 0.0227984834,
            "estimated_diameter_max": 0.0509789586
        },
        "feet": {
            "estimated_diameter_min": 120.3760332259,
            "estimated_diameter_max": 269.1689931548
        }
    },
    "is_potentially_hazardous_asteroid": false,
    "close_approach_data": [
        {
            "close_approach_date": "2007-02-19",
            "close_approach_date_full": "2007-Feb-19 08:45",
            "epoch_date_close_approach": 1171874700000,
            "relative_velocity": {
                "kilometers_per_second": "16.8864300541",
                "kilometers_per_hour": "60791.1481947737",
                "miles_per_hour": "37773.2553880248"
            },
            "miss_distance": {
                "astronomical": "0.0782871517",
                "lunar": "30.4537020113",
                "kilometers": "11711591.142686879",
                "miles": "7277245.2857177702"
            },
            "orbiting_body": "Earth"
        }
    ],
    "orbital_data": {
        "orbit_id": "8",
        "orbit_determination_date": "2017-04-06 09:06:57",
        "first_observation_date": "2007-02-21",
        "last_observation_date": "2007-02-25",
        "data_arc_in_days": 4,
        "observations_used": 21,
        "orbit_uncertainty": "9",
        "minimum_orbit_intersection": ".077238",
        "jupiter_tisserand_invariant": "4.086",
        "epoch_osculation": "2454154.5",
        "eccentricity": ".3639429203657685",
        "semi_major_axis": "1.636104496371579",
        "inclination": "29.85965974726389",
        "ascending_node_longitude": "332.1707324379348",
        "orbital_period": "764.3899776483184",
        "perihelion_distance": "1.040655847938542",
        "perihelion_argument": "154.7132368986858",
        "aphelion_distance": "2.231553144804617",
        "perihelion_time": "2454128.582631830295",
        "mean_anomaly": "12.20614190913224",
        "mean_motion": ".4709637888078502",
        "equinox": "J2000",
        "orbit_class": {
            "orbit_class_type": "AMO",
            "orbit_class_description": "Near-Earth asteroid orbits similar to that of 1221 Amor",
            "orbit_class_range": "1.017 AU < q (perihelion) < 1.3 AU"
        }
    },
    "is_sentry_object": false
}